{"type": "FeatureCollection", "features": [ {"type": "Feature", "properties": {"norad_id": 66737, "name": "FLOCK 4H-34", "group": "last-30-days", "lat": -71.0227869484955, "lon": 93.6272199193357, "alt_km": 519.0295979336597, "timestamp": "2025-12-25T16:53:13.371972+00:00", "meta": {"OBJECT_NAME": "FLOCK 4H-34", "OBJECT_ID": "2025-276BZ", "EPOCH": "2025-12-25T06:07:59.848320", "MEAN_MOTION": 15.18198576, "ECCENTRICITY": 8.615e-05, "INCLINATION": 97.4435, "RA_OF_ASC_NODE": 70.841, "ARG_OF_PERICENTER": 140.1807, "MEAN_ANOMALY": 219.949, "EPHEMERIS_TYPE": 0, "CLASSIFICATION_TYPE": "U", "NORAD_CAT_ID": 66737, "ELEMENT_SET_NO": 999, "REV_AT_EPOCH": 327, "BSTAR": 0.0013685529, "MEAN_MOTION_DOT": 0.00028002, "MEAN_MOTION_DDOT": 0}, "tle": {"line1": "1 66737U 25276BZ  25359.25555380  .00028002  00000+0  13686-2 0  9995", "line2": "2 66737  97.4435  70.8410 0000861 140.1807 219.9490 15.18198576  3276"}}, "geometry": {"type": "Point", "coordinates": [93.6272199193357, -71.0227869484955]}}, {"type": "Feature", "properties": {"norad_id": 66738, "name": "FLOCK 4H-35", "group": "last-30-days", "lat": -61.73481601851353, "lon": 85.3379253211091, "alt_km": 519.8909713877847, "timestamp": "2025-12-25T16:53:13.371983+00:00", "meta": {"OBJECT_NAME": "FLOCK 4H-35", "OBJECT_ID": "2025-276CA", "EPOCH": "2025-12-25T06:05:25.939680", "MEAN_MOTION": 15.18276847, "ECCENTRICITY": 0.0002631, "INCLINATION": 97.4398, "RA_OF_ASC_NODE": 70.8293, "ARG_OF_PERICENTER": 142.1332, "MEAN_ANOMALY": 218.0088, "EPHEMERIS_TYPE": 0, "CLASSIFICATION_TYPE": "U", "NORAD_CAT_ID": 66738, "ELEMENT_SET_NO": 999, "REV_AT_EPOCH": 331, "BSTAR": 0.00050037231, "MEAN_MOTION_DOT": 0.00010195, "MEAN_MOTION_DDOT": 0}, "tle": {"line1": "1 66738U 25276CA  25359.25377245  .00010195  00000+0  50037-3 0  9994", "line2": "2 66738  97.4398  70.8293 0002631 142.1332 218.0088 15.18276847  3312"}}, "geometry": {"type": "Point", "coordinates": [85.3379253211091, -61.73481601851353]}}, {"type": "Feature", "properties": {"norad_id": 66739, "name": "FLOCK 4H-36", "group": "last-30-days", "lat": -82.0532241550714, "lon": 140.78085694745928, "alt_km": 519.4237794964347, "timestamp": "2025-12-25T16:53:13.371994+00:00", "meta": {"OBJECT_NAME": "FLOCK 4H-36", "OBJECT_ID": "2025-276CB", "EPOCH": "2025-12-25T06:11:49.150464", "MEAN_MOTION": 15.18027533, "ECCENTRICITY": 0.00025245, "INCLINATION": 97.4443, "RA_OF_ASC_NODE": 70.8414, "ARG_OF_PERICENTER": 175.0716, "MEAN_ANOMALY": 185.0543, "EPHEMERIS_TYPE": 0, "CLASSIFICATION_TYPE": "U", "NORAD_CAT_ID": 66739, "ELEMENT_SET_NO": 999, "REV_AT_EPOCH": 402, "BSTAR": 0.00048808262, "MEAN_MOTION_DOT": 9.871e-05, "MEAN_MOTION_DDOT": 0}, "tle": {"line1": "1 66739U 25276CB  25359.25820776  .00009871  00000+0  48808-3 0  9999", "line2": "2 66739  97.4443  70.8414 0002524 175.0716 185.0543 15.18027533  4025"}}, "geometry": {"type": "Point", "coordinates": [140.78085694745928, -82.0532241550714]}}, {"type": "Feature", "properties": {"norad_id": 66740, "name": "TRANSPORTER-15CC", "group": "last-30-days", "lat": -62.91959300155528, "lon": -123.55245533871815, "alt_km": 518.4344596227947, "timestamp": "2025-12-25T16:53:13.372005+00:00", "meta": {"OBJECT_NAME": "TRANSPORTER-15CC", "OBJECT_ID": "2025-276CC", "EPOCH": "2025-12-25T04:44:23.395200", "MEAN_MOTION": 15.17750055, "ECCENTRICITY": 0.00021745, "INCLINATION": 97.4407, "RA_OF_ASC_NODE": 70.7597, "ARG_OF_PERICENTER": 224.0053, "MEAN_ANOMALY": 136.1008, "EPHEMERIS_TYPE": 0, "CLASSIFICATION_TYPE": "U", "NORAD_CAT_ID": 66740, "ELEMENT_SET_NO": 999, "REV_AT_EPOCH": 401, "BSTAR": 0.00054475063, "MEAN_MOTION_DOT": 0.00010939, "MEAN_MOTION_DDOT": 0}, "tle": {"line1": "1 66740U 25276CC  25359.19749300  .00010939  00000+0  54475-3 0  9991", "line2": "2 66740  97.4407  70.7597 0002174 224.0053 136.1008 15.17750055  4011"}}, "geometry": {"type": "Point", "coordinates": [-123.55245533871815, -62.91959300155528]}}, {"type": "Feature", "properties": {"norad_id": 66741, "name": "TRANSPORTER-15CD", "group": "last-30-days", "lat": -56.84244917877182, "lon": -120.29292994024568, "alt_km": 519.3386331155762, "timestamp": "2025-12-25T16:53:13.372014+00:00", "meta": {"OBJECT_NAME": "TRANSPORTER-15CD", "OBJECT_ID": "2025-276CD", "EPOCH": "2025-12-24T22:26:13.477344", "MEAN_MOTION": 15.17640949, "ECCENTRICITY": 0.00011404, "INCLINATION": 97.4404, "RA_OF_ASC_NODE": 70.4905, "ARG_OF_PERICENTER": 216.246, "MEAN_ANOMALY": 143.8696, "EPHEMERIS_TYPE": 0, "CLASSIFICATION_TYPE": "U", "NORAD_CAT_ID": 66741, "ELEMENT_SET_NO": 999, "REV_AT_EPOCH": 397, "BSTAR": 0.00032228281, "MEAN_MOTION_DOT": 6.42e-05, "MEAN_MOTION_DDOT": 0}, "tle": {"line1": "1 66741U 25276CD  25358.93487821  .00006420  00000+0  32228-3 0  9992", "line2": "2 66741  97.4404  70.4905 0001140 216.2460 143.8696 15.17640949  3978"}}, "geometry": {"type": "Point", "coordinates": [-120.29292994024568, -56.84244917877182]}}, {"type": "Feature", "properties": {"norad_id": 66742, "name": "TRANSPORTER-15CE", "group": "last-30-days", "lat": -65.6864534417158, "lon": -125.56472737467558, "alt_km": 519.473264277578, "timestamp": "2025-12-25T16:53:13.372027+00:00", "meta": {"OBJECT_NAME": "TRANSPORTER-15CE", "OBJECT_ID": "2025-276CE", "EPOCH": "2025-12-25T03:08:40.960896", "MEAN_MOTION": 15.17729922, "ECCENTRICITY": 0.00018328, "INCLINATION": 97.4399, "RA_OF_ASC_NODE": 70.6847, "ARG_OF_PERICENTER": 179.683, "MEAN_ANOMALY": 180.4406, "EPHEMERIS_TYPE": 0, "CLASSIFICATION_TYPE": "U", "NORAD_CAT_ID": 66742, "ELEMENT_SET_NO": 999, "REV_AT_EPOCH": 400, "BSTAR": 0.00048374372, "MEAN_MOTION_DOT": 9.699e-05, "MEAN_MOTION_DDOT": 0}, "tle": {"line1": "1 66742U 25276CE  25359.13102964  .00009699  00000+0  48374-3 0  9998", "line2": "2 66742  97.4399  70.6847 0001832 179.6830 180.4406 15.17729922  4000"}}, "geometry": {"type": "Point", "coordinates": [-125.56472737467558, -65.6864534417158]}}, {"type": "Feature", "properties": {"norad_id": 66743, "name": "TRANSPORTER-15CF", "group": "last-30-days", "lat": -25.28204930212496, "lon": -112.30874162476425, "alt_km": 552.625157409755, "timestamp": "2025-12-25T16:53:13.372043+00:00", "meta": {"OBJECT_NAME": "TRANSPORTER-15CF", "OBJECT_ID": "2025-276CF", "EPOCH": "2025-12-25T04:50:49.043328", "MEAN_MOTION": 15.11484429, "ECCENTRICITY": 0.00349179, "INCLINATION": 97.4397, "RA_OF_ASC_NODE": 70.743, "ARG_OF_PERICENTER": 109.5161, "MEAN_ANOMALY": 250.9846, "EPHEMERIS_TYPE": 0, "CLASSIFICATION_TYPE": "U", "NORAD_CAT_ID": 66743, "ELEMENT_SET_NO": 999, "REV_AT_EPOCH": 401, "BSTAR": -0.23723515, "MEAN_MOTION_DOT": -0.03580195, "MEAN_MOTION_DDOT": 0}, "tle": {"line1": "1 66743U 25276CF  25359.20195652 -.03580195  00000+0 -23724+0 0  9991", "line2": "2 66743  97.4397  70.7430 0034917 109.5161 250.9846 15.11484429  4013"}}, "geometry": {"type": "Point", "coordinates": [-112.30874162476425, -25.28204930212496]}}, {"type": "Feature", "properties": {"norad_id": 66744, "name": "TRANSPORTER-15CG", "group": "last-30-days", "lat": -65.65082975034184, "lon": -125.44030072917954, "alt_km": 499.03425967722524, "timestamp": "2025-12-25T16:53:13.372053+00:00", "meta": {"OBJECT_NAME": "TRANSPORTER-15CG", "OBJECT_ID": "2025-276CG", "EPOCH": "2025-12-25T03:09:31.796064", "MEAN_MOTION": 15.19341003, "ECCENTRICITY": 0.00243198, "INCLINATION": 97.3868, "RA_OF_ASC_NODE": 70.659, "ARG_OF_PERICENTER": 231.5349, "MEAN_ANOMALY": 128.3704, "EPHEMERIS_TYPE": 0, "CLASSIFICATION_TYPE": "U", "NORAD_CAT_ID": 66744, "ELEMENT_SET_NO": 999, "REV_AT_EPOCH": 400, "BSTAR": 0.00064815362, "MEAN_MOTION_DOT": 0.00013749, "MEAN_MOTION_DDOT": 0}, "tle": {"line1": "1 66744U 25276CG  25359.13161801  .00013749  00000+0  64815-3 0  9994", "line2": "2 66744  97.3868  70.6590 0024319 231.5349 128.3704 15.19341003  4009"}}, "geometry": {"type": "Point", "coordinates": [-125.44030072917954, -65.65082975034184]}}, {"type": "Feature", "properties": {"norad_id": 66745, "name": "TRANSPORTER-15CH", "group": "last-30-days", "lat": -41.943080709569536, "lon": -115.50398388620793, "alt_km": 519.6090532072167, "timestamp": "2025-12-25T16:53:13.372063+00:00", "meta": {"OBJECT_NAME": "TRANSPORTER-15CH", "OBJECT_ID": "2025-276CH", "EPOCH": "2025-12-25T04:49:54.558624", "MEAN_MOTION": 15.17407057, "ECCENTRICITY": 0.00012132, "INCLINATION": 97.4405, "RA_OF_ASC_NODE": 70.7468, "ARG_OF_PERICENTER": 194.1459, "MEAN_ANOMALY": 165.9741, "EPHEMERIS_TYPE": 0, "CLASSIFICATION_TYPE": "U", "NORAD_CAT_ID": 66745, "ELEMENT_SET_NO": 999, "REV_AT_EPOCH": 401, "BSTAR": 0.00014886663, "MEAN_MOTION_DOT": 2.909e-05, "MEAN_MOTION_DDOT": 0}, "tle": {"line1": "1 66745U 25276CH  25359.20132591  .00002909  00000+0  14887-3 0  9997", "line2": "2 66745  97.4405  70.7468 0001213 194.1459 165.9741 15.17407057  4016"}}, "geometry": {"type": "Point", "coordinates": [-115.50398388620793, -41.943080709569536]}}, {"type": "Feature", "properties": {"norad_id": 66746, "name": "TRANSPORTER-15CJ", "group": "last-30-days", "lat": -56.47173231281786, "lon": -120.00980600010246, "alt_km": 507.83598406379133, "timestamp": "2025-12-25T16:53:13.372073+00:00", "meta": {"OBJECT_NAME": "TRANSPORTER-15CJ", "OBJECT_ID": "2025-276CJ", "EPOCH": "2025-12-24T17:43:08.359680", "MEAN_MOTION": 15.19407301, "ECCENTRICITY": 0.00133735, "INCLINATION": 97.3836, "RA_OF_ASC_NODE": 70.3325, "ARG_OF_PERICENTER": 197.9255, "MEAN_ANOMALY": 162.151, "EPHEMERIS_TYPE": 0, "CLASSIFICATION_TYPE": "U", "NORAD_CAT_ID": 66746, "ELEMENT_SET_NO": 999, "REV_AT_EPOCH": 394, "BSTAR": 0.00092520196, "MEAN_MOTION_DOT": 0.00019602, "MEAN_MOTION_DDOT": 0}, "tle": {"line1": "1 66746U 25276CJ  25358.73829120  .00019602  00000+0  92520-3 0  9994", "line2": "2 66746  97.3836  70.3325 0013373 197.9255 162.1510 15.19407301  3945"}}, "geometry": {"type": "Point", "coordinates": [-120.00980600010246, -56.47173231281786]}}]}